SDA_1680
1 65990U 25230S   26107.90597054  .00000133  00000+0  10648-3 0  9994
2 65990  81.2980 267.5121 0004046  16.2434 343.8852 13.85221926 25477
SDA_1681
1 65991U 25230T   26107.89582822  .00000144  00000+0  11670-3 0  9998
2 65991  81.2978 267.4949 0004170  19.4018 340.7297 13.85296752 25471
SDA_1682
1 65992U 25230U   26107.94021401 -.00022410  00000+0 -21937-1 0  9993
2 65992  81.2982 267.7309 0000978 114.1010 246.0246 13.79291463 25465
SDA_1683
1 65993U 25230V   26105.18559725 -.00000531  00000+0 -50677-3 0  9998
2 65993  81.2991 270.2658 0000919  88.4675 271.6585 13.81853295 25085
SDA_1684
1 65994U 25230W   26107.87832679  .00000156  00000+0  13970-3 0  9995
2 65994  81.2983 267.7896 0000786  77.7431 282.3812 13.79884622 25453
HULIANWANG DIGUI-87
1 65995U 25231A   26107.49540747 -.00000110  00000+0  29940-4 0  9993
2 65995  50.0017  33.5308 0000787   6.2029 353.8853 13.29328899 24816
HULIANWANG DIGUI-88
1 65996U 25231B   26107.72927238 -.00000108  00000+0  34329-4 0  9998
2 65996  50.0004  32.7470 0000874   8.0834 352.0052 13.29332763 24845
HULIANWANG DIGUI-89
1 65997U 25231C   26107.48704483 -.00000111  00000+0  28689-4 0  9993
2 65997  49.9981  33.4364 0000875   8.2979 351.7907 13.29329175 24815
HULIANWANG DIGUI-90
1 65998U 25231D   26107.47866749 -.00000109  00000+0  32697-4 0  9998
2 65998  50.0014  33.4358 0000863   9.6004 350.4884 13.29330825 24814
HULIANWANG DIGUI-91
1 65999U 25231E   26107.77105238 -.00000103  00000+0  46107-4 0  9996
2 65999  50.0030  32.3439 0000864   9.7746 350.3142 13.29329978 24853
HULIANWANG DIGUI-92
1 66000U 25231F   26107.53718382 -.00000099  00000+0  53276-4 0  9993
2 66000  50.0072  33.1679 0000856   8.9963 351.0925 13.29327980 24826
HULIANWANG DIGUI-93
1 66001U 25231G   26107.14454274 -.00000098  00000+0  56174-4 0  9997
2 66001  50.0037  34.3854 0000861   7.8267 352.2619 13.29333088 24770
HULIANWANG DIGUI-94
1 66002U 25231H   26107.52878794 -.00000099  00000+0  54846-4 0  9992
2 66002  50.0077  33.1378 0000875   9.4332 350.6557 13.29330618 24824
HULIANWANG DIGUI-95
1 66003U 25231J   26107.51235613 -.00000100  00000+0  51513-4 0  9990
2 66003  50.0050  33.0130 0000855   7.2217 352.8668 13.29329351 24826
STARLINK-34849
1 66005U 25232A   26107.74648301  .00008720  00000+0  30621-3 0  9991
2 66005  53.1603 282.6165 0001633  98.7677 261.3509 15.30199875 29403
STARLINK-35336
1 66006U 25232B   26107.89599419  .00013913  00000+0  48085-3 0  9996
2 66006  53.1592 281.4166 0000788  82.3636 277.7454 15.30209184 29431
STARLINK-35196
1 66007U 25232C   26107.91606190  .00009377  00000+0  32862-3 0  9990
2 66007  53.1580 281.5405 0001189  73.9337 286.1795 15.30169135 29439
STARLINK-35236
1 66008U 25232D   26107.80757464  .00012263  00000+0  42541-3 0  9993
2 66008  53.1598 282.2810 0001359 100.8612 259.2542 15.30205420 29408
STARLINK-35276
1 66009U 25232E   26107.86341861  .00015996  00000+0  55121-3 0  9994
2 66009  53.1594 281.9242 0001536 100.7620 259.3554 15.30189155 29416
STARLINK-35297
1 66010U 25232F   26107.75492404  .00011198  00000+0  38958-3 0  9993
2 66010  53.1611 282.6635 0000963  92.7259 267.3852 15.30203797 29401
STARLINK-35256
1 66011U 25232G   26107.84439802  .00011969  00000+0  41552-3 0  9997
2 66011  53.1588 281.8013 0001004  71.3014 288.8096 15.30206058 29439
STARLINK-35293
1 66012U 25232H   26107.77275077  .00007441  00000+0  26311-3 0  9998
2 66012  53.1591 282.0661 0001134  85.1282 274.9848 15.30199889 29423
STARLINK-35307
1 66013U 25232J   26107.87077999  .00011155  00000+0  38820-3 0  9998
2 66013  53.1590 281.9687 0000972  93.8097 266.3015 15.30199343 29435
STARLINK-35395
1 66014U 25232K   26107.85707167  .00013941  00000+0  48203-3 0  9995
2 66014  53.1589 281.8799 0000824 109.4519 250.6571 15.30192803 29433
STARLINK-34622
1 66015U 25232L   26107.88344260  .00012189  00000+0  42293-3 0  9996
2 66015  53.1609 282.0414 0001059  88.9847 271.1275 15.30205001 29423
STARLINK-35243
1 66016U 25232M   26107.88978943  .00021277  00000+0  72786-3 0  9996
2 66016  53.1602 282.0835 0000821  90.9602 269.1493 15.30225805 29436
STARLINK-35398
1 66017U 25232N   26107.87394638  .00008032  00000+0  28301-3 0  9997
2 66017  53.1590 281.9850 0001075 104.8813 255.2307 15.30198330 29431
STARLINK-35376
1 66018U 25232P   26107.89188536  .00012784  00000+0  44289-3 0  9990
2 66018  53.1601 282.0984 0001081  84.0379 276.0745 15.30208858 29432
STARLINK-35382
1 66019U 25232Q   26107.87922280  .00011138  00000+0  38757-3 0  9996
2 66019  53.1616 282.0169 0001123  83.8147 276.2982 15.30203875 29430
STARLINK-35430
1 66020U 25232R   26107.86022533  .00013514  00000+0  46746-3 0  9996
2 66020  53.1593 281.8984 0000755 115.0640 245.0439 15.30208471 29410
STARLINK-35432
1 66021U 25232S   26107.86655892  .00010143  00000+0  35408-3 0  9995
2 66021  53.1590 281.9389 0000845  73.7819 286.3274 15.30204286 29433
STARLINK-35340
1 66022U 25232T   26107.91920951  .00005251  00000+0  18927-3 0  9994
2 66022  53.1574 281.5572 0000598  96.1373 263.9695 15.30199158 29445
STARLINK-35394
1 66023U 25232U   26107.91287750  .00015094  00000+0  52063-3 0  9993
2 66023  53.1581 281.5174 0001157  88.4212 271.6921 15.30203615 29442
STARLINK-35410
1 66024U 25232V   26107.89915953  .00010609  00000+0  36974-3 0  9994
2 66024  53.1601 281.4299 0000968  85.0601 275.0510 15.30204652 29441
STARLINK-35280
1 66025U 25232W   26107.90654765  .00006970  00000+0  24725-3 0  9995
2 66025  53.1574 281.4755 0000989  76.2717 283.8394 15.30198489 29448
STARLINK-34812
1 66026U 25232X   26107.76442225  .00012746  00000+0  44162-3 0  9991
2 66026  53.1595 282.7216 0001302  95.5789 264.5360 15.30206942 29400
STARLINK-35341
1 66027U 25232Y   26107.89293953  .00010517  00000+0  36664-3 0  9990
2 66027  53.1599 282.0957 0001064  83.2227 276.8895 15.30204834 29436
STARLINK-35339
1 66028U 25232Z   26107.88027125  .00008831  00000+0  31010-3 0  9992
2 66028  53.1601 282.0157 0000760 103.2055 256.9031 15.30182879 29432
STARLINK-35399
1 66029U 25232AA  26107.88871761  .00011061  00000+0  38497-3 0  9991
2 66029  53.1599 282.0671 0001115 107.3209 252.7914 15.30203887 29438
STARLINK-35431
1 66030U 25232AB  26107.75175775  .00010124  00000+0  35343-3 0  9997
2 66030  53.1605 282.6316 0001566  86.4732 273.6448 15.30203374 29411
STARLINK-35326
1 66031U 25232AC  26107.88660671  .00009085  00000+0  31849-3 0  9997
2 66031  53.1596 282.0491 0001053  93.4901 266.6221 15.30199530 29437
STARLINK-35311
1 66032U 25232AD  26107.74543227  .00013029  00000+0  45091-3 0  9997
2 66032  53.1599 282.5904 0000801 108.1109 251.9979 15.30224124 29412
QIANFAN-91
1 66033U 25233A   26107.77214913  .00000094  00000+0  12628-3 0  9997
2 66033  89.0003  49.2873 0002454  77.6792 282.4634 13.51010840 25027
QIANFAN-92
1 66034U 25233B   26107.55809490  .00000072  00000+0  93544-4 0  9997
2 66034  88.9986  49.2905 0002327  80.5880 279.5534 13.51011347 24996
QIANFAN-93
1 66035U 25233C   26107.56634786  .00000090  00000+0  12038-3 0  9991
2 66035  89.0013  49.3251 0002483  79.3936 280.7495 13.51011057 24994
QIANFAN-94
1 66036U 25233D   26107.55408076  .00000076  00000+0  99002-4 0  9993
2 66036  89.0010  49.2318 0002333  77.1656 282.9756 13.51010504 25041
QIANFAN-95
1 66037U 25233E   26107.78434383  .00000087  00000+0  11681-3 0  9997
2 66037  89.0008  48.7538 0002515  75.1790 284.9640 13.51004203 25320
QIANFAN-96
1 66038U 25233F   26107.58697746  .00000071  00000+0  91676-4 0  9996
2 66038  89.0005  49.3185 0002579  78.1596 281.9845 13.51010553 24991
QIANFAN-97
1 66039U 25233G   26107.57052657  .00000086  00000+0  11481-3 0  9993
2 66039  89.0008  49.3022 0002495  78.7358 281.4074 13.51009846 25009
QIANFAN-98
1 66040U 25233H   26107.80086371  .00000083  00000+0  11051-3 0  9991
2 66040  88.9998  49.0165 0002068  68.6240 291.5132 13.51010847 25174
QIANFAN-99
1 66041U 25233J   26107.80502735  .00000077  00000+0  10045-3 0  9994
2 66041  89.0009  49.2821 0002266  70.5902 289.5493 13.51010637 25037
QIANFAN-100
1 66042U 25233K   26107.57455308  .00000086  00000+0  11537-3 0  9999
2 66042  89.0020  49.2257 0002480  79.4506 280.6925 13.51011649 25058
QIANFAN-101
1 66043U 25233L   26107.77007952  .00000260  00000+0  10121-3 0  9992
2 66043  89.0008  47.4907 0014615 351.5821   8.5125 14.26776082 26012
QIANFAN-102
1 66044U 25233M   26107.89147372  .00000082  00000+0  10902-3 0  9996
2 66044  89.0006  49.1846 0002336  76.0279 284.1132 13.51010203 25095
QIANFAN-103
1 66045U 25233N   26107.89553724  .00000087  00000+0  11624-3 0  9996
2 66045  89.0009  49.2776 0002506  79.3784 280.7649 13.51012273 25047
QIANFAN-104
1 66046U 25233P   26107.89955949  .00000095  00000+0  12912-3 0  9992
2 66046  89.0014  49.1766 0002248  77.3724 282.7678 13.51005791 25093
QIANFAN-105
1 66047U 25233Q   26107.90787429  .00000088  00000+0  11719-3 0  9997
2 66047  89.0027  49.0109 0002471  75.9980 284.1446 13.51013060 25204
QIANFAN-106
1 66048U 25233R   26107.90374943  .00000087  00000+0  11652-3 0  9996
2 66048  88.9996  49.2431 0002122  70.0875 290.0505 13.51011102 25050
QIANFAN-107
1 66049U 25233S   26107.91207391  .00000078  00000+0  10169-3 0  9992
2 66049  89.0012  49.2651 0002440  79.1708 280.9717 13.51009125 25059
QIANFAN-108
1 66050U 25233T   26107.91613055  .00000077  00000+0  10120-3 0  9998
2 66050  89.0005  49.2567 0002117  71.2403 288.8978 13.51010579 25056
2025-234B
1 66054U 25234B   26107.92455657  .00003685  00000+0  17195-3 0  9993
2 66054  97.4797 177.6212 0009745 308.5294  51.5067 15.20435574 27489
2025-234C
1 66055U 25234C   26107.93831395  .00003372  00000+0  14345-3 0  9999
2 66055  97.4295 176.8998 0015076  16.4914 343.6810 15.23605852 27519
2025-234D
1 66056U 25234D   26107.75656304  .00008380  00000+0  37337-3 0  9995
2 66056  97.4277 176.4861 0002316 193.7480 166.3693 15.21681132 27461
STARLINK-35552
1 66058U 25235A   26107.86691019  .00018844  00000+0  64665-3 0  9992
2 66058  53.1613  60.8388 0001636 103.5130 256.6053 15.30204564 28959
